O3B MPOWER F1           
1 54755U 22174A   24144.81174463 -.00000012  00000+0  00000+0 0  9993
2 54755   0.0635 358.7459 0006808  66.7199  36.8116  5.00114464 27619
